CCSDS_OMM_VERS = 2.0
CREATION_DATE  = 
ORIGINATOR     = 

OBJECT_NAME    = SL-16 R/B
OBJECT_ID      = 1998-043G
CENTER_NAME    = EARTH
REF_FRAME      = TEME
TIME_SYSTEM    = UTC
MEAN_ELEMENT_THEORY = SGP/SGP4

EPOCH          = 2025-12-10T18:19:35.884992
MEAN_MOTION    = 14.26024845
ECCENTRICITY   = .00087961
INCLINATION    = 98.8122
RA_OF_ASC_NODE = 292.5706
ARG_OF_PERICENTER = 273.2118
MEAN_ANOMALY   = 86.8055

EPHEMERIS_TYPE = 0
CLASSIFICATION_TYPE = U
NORAD_CAT_ID   = 25400
ELEMENT_SET_NO = 999
REV_AT_EPOCH   = 42631
BSTAR          = .82315598E-4
MEAN_MOTION_DOT = .151E-5
MEAN_MOTION_DDOT = 0

CCSDS_OMM_VERS = 2.0
CREATION_DATE  = 
ORIGINATOR     = 

OBJECT_NAME    = SL-16 R/B
OBJECT_ID      = 1998-045B
CENTER_NAME    = EARTH
REF_FRAME      = TEME
TIME_SYSTEM    = UTC
MEAN_ELEMENT_THEORY = SGP/SGP4

EPOCH          = 2025-12-10T10:24:39.450816
MEAN_MOTION    = 14.16175566
ECCENTRICITY   = .00070474
INCLINATION    = 71.0121
RA_OF_ASC_NODE = 9.2766
ARG_OF_PERICENTER = 181.4236
MEAN_ANOMALY   = 178.6869

EPHEMERIS_TYPE = 0
CLASSIFICATION_TYPE = U
NORAD_CAT_ID   = 25407
ELEMENT_SET_NO = 999
REV_AT_EPOCH   = 41446
BSTAR          = -.6497165E-4
MEAN_MOTION_DOT = -.176E-5
MEAN_MOTION_DDOT = 0

CCSDS_OMM_VERS = 2.0
CREATION_DATE  = 
ORIGINATOR     = 

OBJECT_NAME    = ISS (ZARYA)
OBJECT_ID      = 1998-067A
CENTER_NAME    = EARTH
REF_FRAME      = TEME
TIME_SYSTEM    = UTC
MEAN_ELEMENT_THEORY = SGP/SGP4

EPOCH          = 2025-12-10T22:17:24.112320
MEAN_MOTION    = 15.49489378
ECCENTRICITY   = .00033509
INCLINATION    = 51.6309
RA_OF_ASC_NODE = 151.4463
ARG_OF_PERICENTER = 232.8214
MEAN_ANOMALY   = 127.2469

EPHEMERIS_TYPE = 0
CLASSIFICATION_TYPE = U
NORAD_CAT_ID   = 25544
ELEMENT_SET_NO = 999
REV_AT_EPOCH   = 54257
BSTAR          = .26508679E-3
MEAN_MOTION_DOT = .14434E-3
MEAN_MOTION_DDOT = 0

CCSDS_OMM_VERS = 2.0
CREATION_DATE  = 
ORIGINATOR     = 

OBJECT_NAME    = CZ-4B R/B
OBJECT_ID      = 1999-025C
CENTER_NAME    = EARTH
REF_FRAME      = TEME
TIME_SYSTEM    = UTC
MEAN_ELEMENT_THEORY = SGP/SGP4

EPOCH          = 2025-12-10T20:47:30.829920
MEAN_MOTION    = 14.18242830
ECCENTRICITY   = .00362317
INCLINATION    = 98.6771
RA_OF_ASC_NODE = 26.1882
ARG_OF_PERICENTER = 239.5243
MEAN_ANOMALY   = 293.7492

EPHEMERIS_TYPE = 0
CLASSIFICATION_TYPE = U
NORAD_CAT_ID   = 25732
ELEMENT_SET_NO = 999
REV_AT_EPOCH   = 37557
BSTAR          = .73103211E-4
MEAN_MOTION_DOT = .108E-5
MEAN_MOTION_DDOT = 0

CCSDS_OMM_VERS = 2.0
CREATION_DATE  = 
ORIGINATOR     = 

OBJECT_NAME    = OKEAN-O
OBJECT_ID      = 1999-039A
CENTER_NAME    = EARTH
REF_FRAME      = TEME
TIME_SYSTEM    = UTC
MEAN_ELEMENT_THEORY = SGP/SGP4

EPOCH          = 2025-12-10T15:01:54.777216
MEAN_MOTION    = 14.80155882
ECCENTRICITY   = .0000806
INCLINATION    = 97.9604
RA_OF_ASC_NODE = 40.3462
ARG_OF_PERICENTER = 94.2024
MEAN_ANOMALY   = 265.9279

EPHEMERIS_TYPE = 0
CLASSIFICATION_TYPE = U
NORAD_CAT_ID   = 25860
ELEMENT_SET_NO = 999
REV_AT_EPOCH   = 42121
BSTAR          = .1748E-3
MEAN_MOTION_DOT = .1275E-4
MEAN_MOTION_DDOT = 0

CCSDS_OMM_VERS = 2.0
CREATION_DATE  = 
ORIGINATOR     = 

OBJECT_NAME    = SL-16 R/B
OBJECT_ID      = 1999-039B
CENTER_NAME    = EARTH
REF_FRAME      = TEME
TIME_SYSTEM    = UTC
MEAN_ELEMENT_THEORY = SGP/SGP4

EPOCH          = 2025-12-10T10:05:59.792352
MEAN_MOTION    = 14.81581311
ECCENTRICITY   = .0014745
INCLINATION    = 98.0128
RA_OF_ASC_NODE = 38.5718
ARG_OF_PERICENTER = 182.1760
MEAN_ANOMALY   = 177.9390

EPHEMERIS_TYPE = 0
CLASSIFICATION_TYPE = U
NORAD_CAT_ID   = 25861
ELEMENT_SET_NO = 999
REV_AT_EPOCH   = 42364
BSTAR          = .13885011E-3
MEAN_MOTION_DOT = .1038E-4
MEAN_MOTION_DDOT = 0

CCSDS_OMM_VERS = 2.0
CREATION_DATE  = 
ORIGINATOR     = 

OBJECT_NAME    = DELTA 2 R/B
OBJECT_ID      = 1999-041E
CENTER_NAME    = EARTH
REF_FRAME      = TEME
TIME_SYSTEM    = UTC
MEAN_ELEMENT_THEORY = SGP/SGP4

EPOCH          = 2025-12-10T20:56:30.119712
MEAN_MOTION    = 14.11392693
ECCENTRICITY   = .05047324
INCLINATION    = 51.7615
RA_OF_ASC_NODE = 295.8994
ARG_OF_PERICENTER = 86.2627
MEAN_ANOMALY   = 279.5849

EPHEMERIS_TYPE = 0
CLASSIFICATION_TYPE = U
NORAD_CAT_ID   = 25876
ELEMENT_SET_NO = 999
REV_AT_EPOCH   = 35048
BSTAR          = .28775521E-3
MEAN_MOTION_DOT = .1542E-4
MEAN_MOTION_DDOT = 0

CCSDS_OMM_VERS = 2.0
CREATION_DATE  = 
ORIGINATOR     = 

OBJECT_NAME    = HELIOS 1B
OBJECT_ID      = 1999-064A
CENTER_NAME    = EARTH
REF_FRAME      = TEME
TIME_SYSTEM    = UTC
MEAN_ELEMENT_THEORY = SGP/SGP4

EPOCH          = 2025-12-10T15:36:51.104736
MEAN_MOTION    = 14.87268565
ECCENTRICITY   = .000182
INCLINATION    = 98.1750
RA_OF_ASC_NODE = 239.2542
ARG_OF_PERICENTER = 45.4246
MEAN_ANOMALY   = 314.7117

EPHEMERIS_TYPE = 0
CLASSIFICATION_TYPE = U
NORAD_CAT_ID   = 25977
ELEMENT_SET_NO = 999
REV_AT_EPOCH   = 67202
BSTAR          = .38942E-3
MEAN_MOTION_DOT = .3453E-4
MEAN_MOTION_DDOT = 0

CCSDS_OMM_VERS = 2.0
CREATION_DATE  = 
ORIGINATOR     = 

OBJECT_NAME    = TERRA
OBJECT_ID      = 1999-068A
CENTER_NAME    = EARTH
REF_FRAME      = TEME
TIME_SYSTEM    = UTC
MEAN_ELEMENT_THEORY = SGP/SGP4

EPOCH          = 2025-12-10T22:50:12.297408
MEAN_MOTION    = 14.60898443
ECCENTRICITY   = .00036027
INCLINATION    = 97.9751
RA_OF_ASC_NODE = 36.7017
ARG_OF_PERICENTER = 98.0426
MEAN_ANOMALY   = 313.5542

EPHEMERIS_TYPE = 0
CLASSIFICATION_TYPE = U
NORAD_CAT_ID   = 25994
ELEMENT_SET_NO = 999
REV_AT_EPOCH   = 38212
BSTAR          = .15110869E-3
MEAN_MOTION_DOT = .695E-5
MEAN_MOTION_DDOT = 0

CCSDS_OMM_VERS = 2.0
CREATION_DATE  = 
ORIGINATOR     = 

OBJECT_NAME    = SL-16 R/B
OBJECT_ID      = 2000-006B
CENTER_NAME    = EARTH
REF_FRAME      = TEME
TIME_SYSTEM    = UTC
MEAN_ELEMENT_THEORY = SGP/SGP4

EPOCH          = 2025-12-10T18:42:11.710944
MEAN_MOTION    = 14.15810760
ECCENTRICITY   = .00184224
INCLINATION    = 71.0033
RA_OF_ASC_NODE = 284.7791
ARG_OF_PERICENTER = 311.3175
MEAN_ANOMALY   = 48.6362

EPHEMERIS_TYPE = 0
CLASSIFICATION_TYPE = U
NORAD_CAT_ID   = 26070
ELEMENT_SET_NO = 999
REV_AT_EPOCH   = 33597
BSTAR          = .11434347E-4
MEAN_MOTION_DOT = -.25E-6
MEAN_MOTION_DDOT = 0

CCSDS_OMM_VERS = 2.0
CREATION_DATE  = 
ORIGINATOR     = 

OBJECT_NAME    = TITAN 4B R/B
OBJECT_ID      = 2000-047B
CENTER_NAME    = EARTH
REF_FRAME      = TEME
TIME_SYSTEM    = UTC
MEAN_ELEMENT_THEORY = SGP/SGP4

EPOCH          = 2025-12-10T21:17:01.730112
MEAN_MOTION    = 15.08757308
ECCENTRICITY   = .00390585
INCLINATION    = 67.9901
RA_OF_ASC_NODE = 290.0590
ARG_OF_PERICENTER = 146.7269
MEAN_ANOMALY   = 213.6348

EPHEMERIS_TYPE = 0
CLASSIFICATION_TYPE = U
NORAD_CAT_ID   = 26474
ELEMENT_SET_NO = 999
REV_AT_EPOCH   = 37951
BSTAR          = .36033984E-3
MEAN_MOTION_DOT = .5642E-4
MEAN_MOTION_DDOT = 0

CCSDS_OMM_VERS = 2.0
CREATION_DATE  = 
ORIGINATOR     = 

OBJECT_NAME    = ENVISAT
OBJECT_ID      = 2002-009A
CENTER_NAME    = EARTH
REF_FRAME      = TEME
TIME_SYSTEM    = UTC
MEAN_ELEMENT_THEORY = SGP/SGP4

EPOCH          = 2025-12-10T21:07:44.228928
MEAN_MOTION    = 14.38998184
ECCENTRICITY   = .00011383
INCLINATION    = 98.3596
RA_OF_ASC_NODE = 295.6680
ARG_OF_PERICENTER = 82.0700
MEAN_ANOMALY   = 294.1634

EPHEMERIS_TYPE = 0
CLASSIFICATION_TYPE = U
NORAD_CAT_ID   = 27386
ELEMENT_SET_NO = 999
REV_AT_EPOCH   = 24640
BSTAR          = .9515592E-4
MEAN_MOTION_DOT = .251E-5
MEAN_MOTION_DDOT = 0

