SL-16 R/B               
1 25400U 98043G   25344.76360978  .00000151  00000+0  82316-4 0  9999
2 25400  98.8122 292.5706 0008796 273.2118  86.8055 14.26024845426312
SL-16 R/B               
1 25407U 98045B   25344.43378994 -.00000176  00000+0 -64972-4 0  9996
2 25407  71.0121   9.2766 0007047 181.4236 178.6869 14.16175566414461
ISS (ZARYA)             
1 25544U 98067A   25344.92875130  .00014434  00000+0  26509-3 0  9993
2 25544  51.6309 151.4463 0003350 232.8214 127.2469 15.49489378542575
CZ-4B R/B               
1 25732U 99025C   25344.86632905  .00000108  00000+0  73103-4 0  9997
2 25732  98.6771  26.1882 0036231 239.5243 293.7492 14.18242830375575
OKEAN-O                 
1 25860U 99039A   25344.62632844  .00001275  00000+0  17480-3 0  9991
2 25860  97.9604  40.3462 0000806  94.2024 265.9279 14.80155882421214
SL-16 R/B               
1 25861U 99039B   25344.42083093  .00001038  00000+0  13885-3 0  9998
2 25861  98.0128  38.5718 0014745 182.1760 177.9390 14.81581311423648
DELTA 2 R/B             
1 25876U 99041E   25344.87257083  .00001542  00000+0  28776-3 0  9993
2 25876  51.7615 295.8994 0504732  86.2627 279.5849 14.11392693350486
HELIOS 1B               
1 25977U 99064A   25344.65059149  .00003453  00000+0  38942-3 0  9998
2 25977  98.1750 239.2542 0001820  45.4246 314.7117 14.87268565672028
TERRA                   
1 25994U 99068A   25344.95153122  .00000695  00000+0  15111-3 0  9998
2 25994  97.9751  36.7017 0003602  98.0426 313.5542 14.60898443382129
SL-16 R/B               
1 26070U 00006B   25344.77930221 -.00000025  00000+0  11434-4 0  9994
2 26070  71.0033 284.7791 0018422 311.3175  48.6362 14.15810760335976
TITAN 4B R/B            
1 26474U 00047B   25344.88682558  .00005642  00000+0  36034-3 0  9997
2 26474  67.9901 290.0590 0039058 146.7269 213.6348 15.08757308379518
ENVISAT                 
1 27386U 02009A   25344.88037302  .00000251  00000+0  95156-4 0  9993
2 27386  98.3596 295.6680 0001138  82.0700 294.1634 14.38998184246404
